CCSDS_OMM_VERS = 2.0
CREATION_DATE  = 
ORIGINATOR     = 

OBJECT_NAME    = ATLAS CENTAUR R/B
OBJECT_ID      = 1972-065B
CENTER_NAME    = EARTH
REF_FRAME      = TEME
TIME_SYSTEM    = UTC
MEAN_ELEMENT_THEORY = SGP/SGP4

EPOCH          = 2026-02-18T02:22:14.170368
MEAN_MOTION    = 14.77626684
ECCENTRICITY   = .0034078
INCLINATION    = 35.0018
RA_OF_ASC_NODE = 60.5561
ARG_OF_PERICENTER = 206.3106
MEAN_ANOMALY   = 153.5864

EPHEMERIS_TYPE = 0
CLASSIFICATION_TYPE = U
NORAD_CAT_ID   = 6155
ELEMENT_SET_NO = 999
REV_AT_EPOCH   = 83836
BSTAR          = .18014E-3
MEAN_MOTION_DOT = .1299E-4
MEAN_MOTION_DDOT = 0

CCSDS_OMM_VERS = 2.0
CREATION_DATE  = 
ORIGINATOR     = 

OBJECT_NAME    = SL-8 R/B
OBJECT_ID      = 1975-112B
CENTER_NAME    = EARTH
REF_FRAME      = TEME
TIME_SYSTEM    = UTC
MEAN_ELEMENT_THEORY = SGP/SGP4

EPOCH          = 2026-02-18T03:58:20.076960
MEAN_MOTION    = 14.38192850
ECCENTRICITY   = .0014981
INCLINATION    = 74.0594
RA_OF_ASC_NODE = 54.8291
ARG_OF_PERICENTER = 155.4311
MEAN_ANOMALY   = 204.7560

EPHEMERIS_TYPE = 0
CLASSIFICATION_TYPE = U
NORAD_CAT_ID   = 8459
ELEMENT_SET_NO = 999
REV_AT_EPOCH   = 62906
BSTAR          = .58201E-4
MEAN_MOTION_DOT = .151E-5
MEAN_MOTION_DDOT = 0

CCSDS_OMM_VERS = 2.0
CREATION_DATE  = 
ORIGINATOR     = 

OBJECT_NAME    = SL-3 R/B
OBJECT_ID      = 1977-057B
CENTER_NAME    = EARTH
REF_FRAME      = TEME
TIME_SYSTEM    = UTC
MEAN_ELEMENT_THEORY = SGP/SGP4

EPOCH          = 2026-02-18T03:52:48.492768
MEAN_MOTION    = 15.44907344
ECCENTRICITY   = .0007311
INCLINATION    = 97.5738
RA_OF_ASC_NODE = 220.2355
ARG_OF_PERICENTER = 2.8230
MEAN_ANOMALY   = 357.3058

EPHEMERIS_TYPE = 0
CLASSIFICATION_TYPE = U
NORAD_CAT_ID   = 10114
ELEMENT_SET_NO = 999
REV_AT_EPOCH   = 66531
BSTAR          = .26472E-3
MEAN_MOTION_DOT = .12363E-3
MEAN_MOTION_DDOT = 0

CCSDS_OMM_VERS = 2.0
CREATION_DATE  = 
ORIGINATOR     = 

OBJECT_NAME    = SEASAT 1
OBJECT_ID      = 1978-064A
CENTER_NAME    = EARTH
REF_FRAME      = TEME
TIME_SYSTEM    = UTC
MEAN_ELEMENT_THEORY = SGP/SGP4

EPOCH          = 2026-02-18T01:24:24.037920
MEAN_MOTION    = 14.46144117
ECCENTRICITY   = .0001826
INCLINATION    = 108.0154
RA_OF_ASC_NODE = 84.3028
ARG_OF_PERICENTER = 291.1603
MEAN_ANOMALY   = 68.9348

EPHEMERIS_TYPE = 0
CLASSIFICATION_TYPE = U
NORAD_CAT_ID   = 10967
ELEMENT_SET_NO = 999
REV_AT_EPOCH   = 50367
BSTAR          = .98079E-4
MEAN_MOTION_DOT = .213E-5
MEAN_MOTION_DDOT = 0

CCSDS_OMM_VERS = 2.0
CREATION_DATE  = 
ORIGINATOR     = 

OBJECT_NAME    = SL-14 R/B
OBJECT_ID      = 1979-011B
CENTER_NAME    = EARTH
REF_FRAME      = TEME
TIME_SYSTEM    = UTC
MEAN_ELEMENT_THEORY = SGP/SGP4

EPOCH          = 2026-02-18T03:07:14.181600
MEAN_MOTION    = 14.91884046
ECCENTRICITY   = .0017482
INCLINATION    = 82.5239
RA_OF_ASC_NODE = 115.1321
ARG_OF_PERICENTER = 120.5800
MEAN_ANOMALY   = 239.7147

EPHEMERIS_TYPE = 0
CLASSIFICATION_TYPE = U
NORAD_CAT_ID   = 11267
ELEMENT_SET_NO = 999
REV_AT_EPOCH   = 52586
BSTAR          = .51704E-4
MEAN_MOTION_DOT = .55E-5
MEAN_MOTION_DDOT = 0

CCSDS_OMM_VERS = 2.0
CREATION_DATE  = 
ORIGINATOR     = 

OBJECT_NAME    = SL-8 R/B
OBJECT_ID      = 1979-089B
CENTER_NAME    = EARTH
REF_FRAME      = TEME
TIME_SYSTEM    = UTC
MEAN_ELEMENT_THEORY = SGP/SGP4

EPOCH          = 2026-02-18T04:27:56.864448
MEAN_MOTION    = 14.42338377
ECCENTRICITY   = .0016825
INCLINATION    = 74.0691
RA_OF_ASC_NODE = 127.1478
ARG_OF_PERICENTER = 301.8058
MEAN_ANOMALY   = 58.1460

EPHEMERIS_TYPE = 0
CLASSIFICATION_TYPE = U
NORAD_CAT_ID   = 11574
ELEMENT_SET_NO = 999
REV_AT_EPOCH   = 43329
BSTAR          = .85861E-4
MEAN_MOTION_DOT = .258E-5
MEAN_MOTION_DDOT = 0

CCSDS_OMM_VERS = 2.0
CREATION_DATE  = 
ORIGINATOR     = 

OBJECT_NAME    = SL-14 R/B
OBJECT_ID      = 1980-005B
CENTER_NAME    = EARTH
REF_FRAME      = TEME
TIME_SYSTEM    = UTC
MEAN_ELEMENT_THEORY = SGP/SGP4

EPOCH          = 2026-02-18T03:07:28.569792
MEAN_MOTION    = 14.90904626
ECCENTRICITY   = .0014503
INCLINATION    = 82.5174
RA_OF_ASC_NODE = 325.7853
ARG_OF_PERICENTER = 224.8946
MEAN_ANOMALY   = 135.1101

EPHEMERIS_TYPE = 0
CLASSIFICATION_TYPE = U
NORAD_CAT_ID   = 11672
ELEMENT_SET_NO = 999
REV_AT_EPOCH   = 47357
BSTAR          = .60563E-4
MEAN_MOTION_DOT = .623E-5
MEAN_MOTION_DDOT = 0

CCSDS_OMM_VERS = 2.0
CREATION_DATE  = 
ORIGINATOR     = 

OBJECT_NAME    = SL-8 R/B
OBJECT_ID      = 1981-003B
CENTER_NAME    = EARTH
REF_FRAME      = TEME
TIME_SYSTEM    = UTC
MEAN_ELEMENT_THEORY = SGP/SGP4

EPOCH          = 2026-02-18T03:03:39.307392
MEAN_MOTION    = 15.10239574
ECCENTRICITY   = .0262582
INCLINATION    = 82.9398
RA_OF_ASC_NODE = 308.1022
ARG_OF_PERICENTER = 246.7765
MEAN_ANOMALY   = 110.5621

EPHEMERIS_TYPE = 0
CLASSIFICATION_TYPE = U
NORAD_CAT_ID   = 12139
ELEMENT_SET_NO = 999
REV_AT_EPOCH   = 31172
BSTAR          = .37089E-3
MEAN_MOTION_DOT = .14103E-3
MEAN_MOTION_DDOT = 0

CCSDS_OMM_VERS = 2.0
CREATION_DATE  = 
ORIGINATOR     = 

OBJECT_NAME    = SL-3 R/B
OBJECT_ID      = 1981-046B
CENTER_NAME    = EARTH
REF_FRAME      = TEME
TIME_SYSTEM    = UTC
MEAN_ELEMENT_THEORY = SGP/SGP4

EPOCH          = 2026-02-18T04:24:17.113824
MEAN_MOTION    = 15.41445626
ECCENTRICITY   = .0020775
INCLINATION    = 81.2340
RA_OF_ASC_NODE = 313.1543
ARG_OF_PERICENTER = 86.6651
MEAN_ANOMALY   = 273.6968

EPHEMERIS_TYPE = 0
CLASSIFICATION_TYPE = U
NORAD_CAT_ID   = 12465
ELEMENT_SET_NO = 999
REV_AT_EPOCH   = 43542
BSTAR          = .29603E-3
MEAN_MOTION_DOT = .12517E-3
MEAN_MOTION_DDOT = 0

CCSDS_OMM_VERS = 2.0
CREATION_DATE  = 
ORIGINATOR     = 

OBJECT_NAME    = SL-3 R/B
OBJECT_ID      = 1981-103B
CENTER_NAME    = EARTH
REF_FRAME      = TEME
TIME_SYSTEM    = UTC
MEAN_ELEMENT_THEORY = SGP/SGP4

EPOCH          = 2026-02-18T02:31:31.768320
MEAN_MOTION    = 15.21128894
ECCENTRICITY   = .0013203
INCLINATION    = 81.1557
RA_OF_ASC_NODE = 236.4053
ARG_OF_PERICENTER = 355.2533
MEAN_ANOMALY   = 4.8571

EPHEMERIS_TYPE = 0
CLASSIFICATION_TYPE = U
NORAD_CAT_ID   = 12904
ELEMENT_SET_NO = 999
REV_AT_EPOCH   = 97025
BSTAR          = .22337E-3
MEAN_MOTION_DOT = .5006E-4
MEAN_MOTION_DDOT = 0

CCSDS_OMM_VERS = 2.0
CREATION_DATE  = 
ORIGINATOR     = 

OBJECT_NAME    = SL-3 R/B
OBJECT_ID      = 1982-013B
CENTER_NAME    = EARTH
REF_FRAME      = TEME
TIME_SYSTEM    = UTC
MEAN_ELEMENT_THEORY = SGP/SGP4

EPOCH          = 2026-02-18T02:55:12.684576
MEAN_MOTION    = 15.21790462
ECCENTRICITY   = .0021746
INCLINATION    = 81.1756
RA_OF_ASC_NODE = 183.6963
ARG_OF_PERICENTER = 244.7952
MEAN_ANOMALY   = 115.1025

EPHEMERIS_TYPE = 0
CLASSIFICATION_TYPE = U
NORAD_CAT_ID   = 13068
ELEMENT_SET_NO = 999
REV_AT_EPOCH   = 40137
BSTAR          = .23407E-3
MEAN_MOTION_DOT = .5369E-4
MEAN_MOTION_DDOT = 0

CCSDS_OMM_VERS = 2.0
CREATION_DATE  = 
ORIGINATOR     = 

OBJECT_NAME    = SL-3 R/B
OBJECT_ID      = 1982-039B
CENTER_NAME    = EARTH
REF_FRAME      = TEME
TIME_SYSTEM    = UTC
MEAN_ELEMENT_THEORY = SGP/SGP4

EPOCH          = 2026-02-18T02:36:37.448928
MEAN_MOTION    = 15.09964721
ECCENTRICITY   = .0030019
INCLINATION    = 81.1591
RA_OF_ASC_NODE = 238.5340
ARG_OF_PERICENTER = 28.4253
MEAN_ANOMALY   = 331.8602

EPHEMERIS_TYPE = 0
CLASSIFICATION_TYPE = U
NORAD_CAT_ID   = 13154
ELEMENT_SET_NO = 999
REV_AT_EPOCH   = 37868
BSTAR          = .13681E-3
MEAN_MOTION_DOT = .2267E-4
MEAN_MOTION_DDOT = 0

