ATLAS CENTAUR R/B       
1 06155U 72065B   26049.09877512  .00001299  00000+0  18014-3 0  9994
2 06155  35.0018  60.5561 0034078 206.3106 153.5864 14.77626684838360
SL-8 R/B                
1 08459U 75112B   26049.16551015  .00000151  00000+0  58201-4 0  9993
2 08459  74.0594  54.8291 0014981 155.4311 204.7560 14.38192850629067
SL-3 R/B                
1 10114U 77057B   26049.16167237  .00012363  00000+0  26472-3 0  9995
2 10114  97.5738 220.2355 0007311   2.8230 357.3058 15.44907344665317
SEASAT 1                
1 10967U 78064A   26049.05861155  .00000213  00000+0  98079-4 0  9992
2 10967 108.0154  84.3028 0001826 291.1603  68.9348 14.46144117503670
SL-14 R/B               
1 11267U 79011B   26049.13002525  .00000550  00000+0  51704-4 0  9994
2 11267  82.5239 115.1321 0017482 120.5800 239.7147 14.91884046525864
SL-8 R/B                
1 11574U 79089B   26049.18607482  .00000258  00000+0  85861-4 0  9994
2 11574  74.0691 127.1478 0016825 301.8058  58.1460 14.42338377433291
SL-14 R/B               
1 11672U 80005B   26049.13019178  .00000623  00000+0  60563-4 0  9995
2 11672  82.5174 325.7853 0014503 224.8946 135.1101 14.90904626473576
SL-8 R/B                
1 12139U 81003B   26049.12753828  .00014103  00000+0  37089-3 0  9993
2 12139  82.9398 308.1022 0262582 246.7765 110.5621 15.10239574311722
SL-3 R/B                
1 12465U 81046B   26049.18353141  .00012517  00000+0  29603-3 0  9992
2 12465  81.2340 313.1543 0020775  86.6651 273.6968 15.41445626435428
SL-3 R/B                
1 12904U 81103B   26049.10522880  .00005006  00000+0  22337-3 0  9996
2 12904  81.1557 236.4053 0013203 355.2533   4.8571 15.21128894970252
SL-3 R/B                
1 13068U 82013B   26049.12167459  .00005369  00000+0  23407-3 0  9999
2 13068  81.1756 183.6963 0021746 244.7952 115.1025 15.21790462401374
SL-3 R/B                
1 13154U 82039B   26049.10876677  .00002267  00000+0  13681-3 0  9997
2 13154  81.1591 238.5340 0030019  28.4253 331.8602 15.09964721378682
